STARLINK-33708          
1 63405U 25065G   25294.69492713  .00034477  00000+0  12561-2 0  9990
2 63405  43.0012 171.9481 0000812 281.6826  78.3934 15.27592085 31580
STARLINK-33690          
1 63406U 25065H   25294.66457175  .00063691  00000+0  23034-2 0  9998
2 63406  42.9988 168.2589 0001814 263.4131  96.6514 15.27590214 31623
STARLINK-33694          
1 63407U 25065J   25294.36028020  .00041376  00000+0  15040-2 0  9993
2 63407  43.0001 173.7294 0001601 283.3936  76.6737 15.27593558 31533
STARLINK-33692          
1 63408U 25065K   25294.40348765  .00033702  00000+0  12288-2 0  9995
2 63408  43.0002 177.5206 0001381 289.5198  70.5504 15.27575142 31492
STARLINK-33693          
1 63409U 25065L   25294.37827461  .00031662  00000+0  11553-2 0  9994
2 63409  42.9980 173.8660 0000685 293.5766  66.5014 15.27577385 31538
STARLINK-33677          
1 63410U 25065M   25293.97824266  .00037420  00000+0  13616-2 0  9991
2 63410  43.0049 176.0223 0001983 259.7900 100.2728 15.27599381 31475
STARLINK-33647          
1 63411U 25065N   25294.41840855  .00036285  00000+0  13215-2 0  9997
2 63411  43.0049 181.1004 0003062 262.3391  97.7113 15.27581300 31452
STARLINK-33645          
1 63412U 25065P   25294.36235775  .00039509  00000+0  14382-2 0  9999
2 63412  42.9968 177.1365 0001232 292.6167  67.4554 15.27564945 31493
STARLINK-33670          
1 63413U 25065Q   25294.36670132  .00030878  00000+0  11271-2 0  9994
2 63413  42.9989 173.7456 0001455 280.9420  79.1268 15.27575233 31538
STARLINK-33644          
1 63414U 25065R   25294.67450568  .00033473  00000+0  12198-2 0  9991
2 63414  43.0002 172.6006 0001550 263.6222  96.4453 15.27594815 31579
STARLINK-33664          
1 63415U 25065S   25294.70134308  .00035630  00000+0  12972-2 0  9994
2 63415  42.9978 171.9542 0000813 303.5516  56.5258 15.27600886 31585
STARLINK-33649          
1 63416U 25065T   25294.36156131  .00050602  00000+0  18356-2 0  9993
2 63416  42.9994 173.6841 0000935 255.1675 104.9074 15.27583455 31539
STARLINK-33535          
1 63417U 25065U   25293.98079184  .00055475  00000+0  20081-2 0  9994
2 63417  43.0018 175.9777 0001268 257.0171 103.0539 15.27617348 31472
STARLINK-33703          
1 63418U 25065V   25294.06675240  .00033239  00000+0  12124-2 0  9993
2 63418  43.0037 175.7855 0002037 293.4094  66.6544 15.27566513 31480
STARLINK-33709          
1 63419U 25065W   25294.65907639  .00055851  00000+0  20219-2 0  9997
2 63419  42.9985 172.4899 0000371 273.6887  86.3922 15.27610101 31574
STARLINK-33698          
1 63420U 25065X   25294.35383683  .00064144  00000+0  23167-2 0  9993
2 63420  43.0003 173.6147 0001373 276.9555  83.1141 15.27630766 31532
