[{"OBJECT_NAME":"STARLINK-33708","OBJECT_ID":"2025-065G","EPOCH":"2025-10-21T16:40:41.704032","MEAN_MOTION":15.27592085,"ECCENTRICITY":8.12e-5,"INCLINATION":43.0012,"RA_OF_ASC_NODE":171.9481,"ARG_OF_PERICENTER":281.6826,"MEAN_ANOMALY":78.3934,"EPHEMERIS_TYPE":0,"CLASSIFICATION_TYPE":"U","NORAD_CAT_ID":63405,"ELEMENT_SET_NO":999,"REV_AT_EPOCH":3158,"BSTAR":0.0012561,"MEAN_MOTION_DOT":0.00034477,"MEAN_MOTION_DDOT":0},{"OBJECT_NAME":"STARLINK-33690","OBJECT_ID":"2025-065H","EPOCH":"2025-10-21T15:56:58.999200","MEAN_MOTION":15.27590214,"ECCENTRICITY":0.0001814,"INCLINATION":42.9988,"RA_OF_ASC_NODE":168.2589,"ARG_OF_PERICENTER":263.4131,"MEAN_ANOMALY":96.6514,"EPHEMERIS_TYPE":0,"CLASSIFICATION_TYPE":"U","NORAD_CAT_ID":63406,"ELEMENT_SET_NO":999,"REV_AT_EPOCH":3162,"BSTAR":0.0023034,"MEAN_MOTION_DOT":0.00063691,"MEAN_MOTION_DDOT":0},{"OBJECT_NAME":"STARLINK-33694","OBJECT_ID":"2025-065J","EPOCH":"2025-10-21T08:38:48.209280","MEAN_MOTION":15.27593558,"ECCENTRICITY":0.00016014,"INCLINATION":43.0001,"RA_OF_ASC_NODE":173.7294,"ARG_OF_PERICENTER":283.3936,"MEAN_ANOMALY":76.6737,"EPHEMERIS_TYPE":0,"CLASSIFICATION_TYPE":"U","NORAD_CAT_ID":63407,"ELEMENT_SET_NO":999,"REV_AT_EPOCH":3153,"BSTAR":0.0015040331,"MEAN_MOTION_DOT":0.00041376,"MEAN_MOTION_DDOT":0},{"OBJECT_NAME":"STARLINK-33692","OBJECT_ID":"2025-065K","EPOCH":"2025-10-21T09:41:01.332960","MEAN_MOTION":15.27575142,"ECCENTRICITY":0.00013814,"INCLINATION":43.0002,"RA_OF_ASC_NODE":177.5206,"ARG_OF_PERICENTER":289.5198,"MEAN_ANOMALY":70.5504,"EPHEMERIS_TYPE":0,"CLASSIFICATION_TYPE":"U","NORAD_CAT_ID":63408,"ELEMENT_SET_NO":999,"REV_AT_EPOCH":3149,"BSTAR":0.0012288169,"MEAN_MOTION_DOT":0.00033702,"MEAN_MOTION_DDOT":0},{"OBJECT_NAME":"STARLINK-33693","OBJECT_ID":"2025-065L","EPOCH":"2025-10-21T09:04:42.926304","MEAN_MOTION":15.27577385,"ECCENTRICITY":6.855e-5,"INCLINATION":42.998,"RA_OF_ASC_NODE":173.866,"ARG_OF_PERICENTER":293.5766,"MEAN_ANOMALY":66.5014,"EPHEMERIS_TYPE":0,"CLASSIFICATION_TYPE":"U","NORAD_CAT_ID":63409,"ELEMENT_SET_NO":999,"REV_AT_EPOCH":3153,"BSTAR":0.0011552688,"MEAN_MOTION_DOT":0.00031662,"MEAN_MOTION_DDOT":0},{"OBJECT_NAME":"STARLINK-33677","OBJECT_ID":"2025-065M","EPOCH":"2025-10-20T23:28:40.165824","MEAN_MOTION":15.27599381,"ECCENTRICITY":0.00019835,"INCLINATION":43.0049,"RA_OF_ASC_NODE":176.0223,"ARG_OF_PERICENTER":259.79,"MEAN_ANOMALY":100.2728,"EPHEMERIS_TYPE":0,"CLASSIFICATION_TYPE":"U","NORAD_CAT_ID":63410,"ELEMENT_SET_NO":999,"REV_AT_EPOCH":3147,"BSTAR":0.0013616234,"MEAN_MOTION_DOT":0.0003742,"MEAN_MOTION_DDOT":0},{"OBJECT_NAME":"STARLINK-33647","OBJECT_ID":"2025-065N","EPOCH":"2025-10-21T10:02:30.498720","MEAN_MOTION":15.275813,"ECCENTRICITY":0.00030626,"INCLINATION":43.0049,"RA_OF_ASC_NODE":181.1004,"ARG_OF_PERICENTER":262.3391,"MEAN_ANOMALY":97.7113,"EPHEMERIS_TYPE":0,"CLASSIFICATION_TYPE":"U","NORAD_CAT_ID":63411,"ELEMENT_SET_NO":999,"REV_AT_EPOCH":3145,"BSTAR":0.0013214849,"MEAN_MOTION_DOT":0.00036285,"MEAN_MOTION_DDOT":0},{"OBJECT_NAME":"STARLINK-33645","OBJECT_ID":"2025-065P","EPOCH":"2025-10-21T08:41:47.709600","MEAN_MOTION":15.27564945,"ECCENTRICITY":0.00012327,"INCLINATION":42.9968,"RA_OF_ASC_NODE":177.1365,"ARG_OF_PERICENTER":292.6167,"MEAN_ANOMALY":67.4554,"EPHEMERIS_TYPE":0,"CLASSIFICATION_TYPE":"U","NORAD_CAT_ID":63412,"ELEMENT_SET_NO":999,"REV_AT_EPOCH":3149,"BSTAR":0.0014382363,"MEAN_MOTION_DOT":0.00039509,"MEAN_MOTION_DDOT":0},{"OBJECT_NAME":"STARLINK-33670","OBJECT_ID":"2025-065Q","EPOCH":"2025-10-21T08:48:02.994048","MEAN_MOTION":15.27575233,"ECCENTRICITY":0.00014556,"INCLINATION":42.9989,"RA_OF_ASC_NODE":173.7456,"ARG_OF_PERICENTER":280.942,"MEAN_ANOMALY":79.1268,"EPHEMERIS_TYPE":0,"CLASSIFICATION_TYPE":"U","NORAD_CAT_ID":63413,"ELEMENT_SET_NO":999,"REV_AT_EPOCH":3153,"BSTAR":0.0011270812,"MEAN_MOTION_DOT":0.00030878,"MEAN_MOTION_DDOT":0},{"OBJECT_NAME":"STARLINK-33644","OBJECT_ID":"2025-065R","EPOCH":"2025-10-21T16:11:17.290752","MEAN_MOTION":15.27594815,"ECCENTRICITY":0.000155,"INCLINATION":43.0002,"RA_OF_ASC_NODE":172.6006,"ARG_OF_PERICENTER":263.6222,"MEAN_ANOMALY":96.4453,"EPHEMERIS_TYPE":0,"CLASSIFICATION_TYPE":"U","NORAD_CAT_ID":63414,"ELEMENT_SET_NO":999,"REV_AT_EPOCH":3157,"BSTAR":0.0012198,"MEAN_MOTION_DOT":0.00033473,"MEAN_MOTION_DDOT":0},{"OBJECT_NAME":"STARLINK-33664","OBJECT_ID":"2025-065S","EPOCH":"2025-10-21T16:49:56.042112","MEAN_MOTION":15.27600886,"ECCENTRICITY":8.13e-5,"INCLINATION":42.9978,"RA_OF_ASC_NODE":171.9542,"ARG_OF_PERICENTER":303.5516,"MEAN_ANOMALY":56.5258,"EPHEMERIS_TYPE":0,"CLASSIFICATION_TYPE":"U","NORAD_CAT_ID":63415,"ELEMENT_SET_NO":999,"REV_AT_EPOCH":3158,"BSTAR":0.0012972,"MEAN_MOTION_DOT":0.0003563,"MEAN_MOTION_DDOT":0},{"OBJECT_NAME":"STARLINK-33649","OBJECT_ID":"2025-065T","EPOCH":"2025-10-21T08:40:38.897184","MEAN_MOTION":15.27583455,"ECCENTRICITY":9.353e-5,"INCLINATION":42.9994,"RA_OF_ASC_NODE":173.6841,"ARG_OF_PERICENTER":255.1675,"MEAN_ANOMALY":104.9074,"EPHEMERIS_TYPE":0,"CLASSIFICATION_TYPE":"U","NORAD_CAT_ID":63416,"ELEMENT_SET_NO":999,"REV_AT_EPOCH":3153,"BSTAR":0.0018355948,"MEAN_MOTION_DOT":0.00050602,"MEAN_MOTION_DDOT":0},{"OBJECT_NAME":"STARLINK-33535","OBJECT_ID":"2025-065U","EPOCH":"2025-10-20T23:32:20.414976","MEAN_MOTION":15.27617348,"ECCENTRICITY":0.00012686,"INCLINATION":43.0018,"RA_OF_ASC_NODE":175.9777,"ARG_OF_PERICENTER":257.0171,"MEAN_ANOMALY":103.0539,"EPHEMERIS_TYPE":0,"CLASSIFICATION_TYPE":"U","NORAD_CAT_ID":63417,"ELEMENT_SET_NO":999,"REV_AT_EPOCH":3147,"BSTAR":0.0020080635,"MEAN_MOTION_DOT":0.00055475,"MEAN_MOTION_DDOT":0},{"OBJECT_NAME":"STARLINK-33703","OBJECT_ID":"2025-065V","EPOCH":"2025-10-21T01:36:07.407360","MEAN_MOTION":15.27566513,"ECCENTRICITY":0.00020372,"INCLINATION":43.0037,"RA_OF_ASC_NODE":175.7855,"ARG_OF_PERICENTER":293.4094,"MEAN_ANOMALY":66.6544,"EPHEMERIS_TYPE":0,"CLASSIFICATION_TYPE":"U","NORAD_CAT_ID":63418,"ELEMENT_SET_NO":999,"REV_AT_EPOCH":3148,"BSTAR":0.0012124329,"MEAN_MOTION_DOT":0.00033239,"MEAN_MOTION_DDOT":0},{"OBJECT_NAME":"STARLINK-33709","OBJECT_ID":"2025-065W","EPOCH":"2025-10-21T15:49:04.200096","MEAN_MOTION":15.27610101,"ECCENTRICITY":3.71e-5,"INCLINATION":42.9985,"RA_OF_ASC_NODE":172.4899,"ARG_OF_PERICENTER":273.6887,"MEAN_ANOMALY":86.3922,"EPHEMERIS_TYPE":0,"CLASSIFICATION_TYPE":"U","NORAD_CAT_ID":63419,"ELEMENT_SET_NO":999,"REV_AT_EPOCH":3157,"BSTAR":0.0020219,"MEAN_MOTION_DOT":0.00055851,"MEAN_MOTION_DDOT":0},{"OBJECT_NAME":"STARLINK-33698","OBJECT_ID":"2025-065X","EPOCH":"2025-10-21T08:29:31.502112","MEAN_MOTION":15.27630766,"ECCENTRICITY":0.00013738,"INCLINATION":43.0003,"RA_OF_ASC_NODE":173.6147,"ARG_OF_PERICENTER":276.9555,"MEAN_ANOMALY":83.1141,"EPHEMERIS_TYPE":0,"CLASSIFICATION_TYPE":"U","NORAD_CAT_ID":63420,"ELEMENT_SET_NO":999,"REV_AT_EPOCH":3153,"BSTAR":0.0023166943,"MEAN_MOTION_DOT":0.00064144,"MEAN_MOTION_DDOT":0}]
